STARLINK-36933          
1 69196U 26114Q   26157.91670139 -.00076371  00000+0 -38636-3 0  9996
2 69196  53.1588 253.6132 0000700 114.2720  76.6581 15.80899304  3169
STARLINK-37419          
1 69197U 26114R   26157.91670139 -.00064290  00000+0 -32455-3 0  9997
2 69197  53.1588 253.5952 0001047  83.6080 115.8753 15.80876710  3165
STARLINK-37321          
1 69198U 26114S   26157.91670139 -.00030557  00000+0 -15170-3 0  9992
2 69198  53.1592 253.5869 0001471  79.4274 124.3364 15.80888366  3160
STARLINK-37406          
1 69199U 26114T   26157.91670139 -.00093062  00000+0 -47228-3 0  9992
2 69199  53.1589 253.5779 0000877  75.6703 132.3405 15.80908324  3163
STARLINK-37761          
1 69200U 26114U   26157.91670139 -.00013560  00000+0 -65282-4 0  9991
2 69200  53.1589 253.5686 0001196  75.1831 137.1126 15.80867031  3167
STARLINK-37754          
1 69201U 26114V   26157.91670139 -.00077080  00000+0 -38998-3 0  9992
2 69201  53.1587 253.5578 0000705  91.3724 126.2865 15.80901043  3163
STARLINK-37649          
1 69202U 26114W   26157.91670139 -.00019914  00000+0 -97563-4 0  9999
2 69202  53.1589 253.5514 0000932  98.0571 122.7760 15.80878476  3160
STARLINK-37604          
1 69203U 26114X   26157.91670139  .00024308  00000+0  12643-3 0  9996
2 69203  53.1590 253.5427 0000668 105.6907 119.4211 15.80859488  3166
STARLINK-37669          
1 69204U 26114Y   26157.91670139  .00023458  00000+0  12214-3 0  9996
2 69204  53.1589 253.5334 0001049  91.8520 137.5289 15.80858227  3169
STARLINK-37691          
1 69205U 26114Z   26157.91670139 -.00002283  00000+0 -80341-5 0  9990
2 69205  53.1589 253.5066 0000923  86.2690 155.9310 15.80861397  3169
STARLINK-37671          
1 69206U 26114AA  26157.91670139 -.00043351  00000+0 -21702-3 0  9996
2 69206  53.1588 253.5152 0001115  85.4348 152.4840 15.80889527  3165
STARLINK-37647          
1 69207U 26114AB  26157.91670139 -.00013565  00000+0 -65289-4 0  9990
2 69207  53.1589 253.5246 0001095 104.3419 129.3085 15.80874462  3164
STARLINK-37562          
1 69208U 26114AC  26157.91670139 -.00001905  00000+0 -61127-5 0  9994
2 69208  53.1588 253.4976 0000999  78.1559 168.3040 15.80878800  3162
STARLINK-37682          
1 69209U 26114AD  26157.91670139  .00009670  00000+0  52485-4 0  9996
2 69209  53.1587 253.4886 0000785  95.0561 155.6786 15.80868603  3162
STARLINK-37402          
1 69210U 26114AE  26157.91670139  .00007173  00000+0  39870-4 0  9997
2 69210  53.1588 253.4798 0001160 102.2107 152.8022 15.80862309  3161
STARLINK-37613          
1 69211U 26115A   26157.91670139 -.00722526  00000+0 -49085-2 0  9994
2 69211  97.2846 174.8071 0000885  92.3704 268.1990 15.76795693  3041
STARLINK-37713          
1 69212U 26115B   26157.91670139  .00019345  00000+0  10155-3 0  9998
2 69212  97.2840 174.8092 0001161  81.8455 284.9808 15.80808033  3045
STARLINK-37716          
1 69213U 26115C   26157.91670139  .00186994  00000+0  96223-3 0  9994
2 69213  97.2845 174.8081 0001668  92.0893 270.5615 15.80677773  3043
STARLINK-37620          
1 69214U 26115D   26157.91670139 -.02489718  00000+0 -19754-1 0  9991
2 69214  97.2847 174.8057 0001330  81.5093 278.1046 15.74903866  3040
STARLINK-37700          
1 69215U 26115E   26157.91670139 -.02442291  00000+0 -28887-1 0  9994
2 69215  97.2848 174.7757 0001372  94.4513 193.9134 15.64645502  3045
STARLINK-37766          
1 69216U 26115F   26157.91670139  .00123706  00000+0  63884-3 0  9996
2 69216  97.2840 174.8146 0001058  80.7592 298.8964 15.80768698  3043
STARLINK-37763          
1 69217U 26115G   26157.91670139  .00141527  00000+0  72956-3 0  9998
2 69217  97.2841 174.8163 0001159  84.4734 298.7890 15.80759827  3046
STARLINK-37724          
1 69218U 26115H   26157.91670139  .00143492  00000+0  73926-3 0  9990
2 69218  97.2845 174.8186 0001361  94.3787 293.6382 15.80766986  3043
STARLINK-37758          
1 69219U 26115J   26157.91670139  .00136629  00000+0  70445-3 0  9998
2 69219  97.2842 174.8263 0001038  90.7321 315.5339 15.80768623  3048
STARLINK-37201          
1 69220U 26115K   26157.91670139  .00050597  00000+0  26363-3 0  9999
2 69220  97.2846 174.8229 0001097  85.3019 313.9373 15.80793638  3049
STARLINK-37728          
1 69221U 26115L   26157.91670139  .00006644  00000+0  35409-4 0  9996
2 69221  97.2843 174.8290 0001271  86.1205 326.8720 15.80809413  3043
STARLINK-37760          
1 69222U 26115M   26157.91670139  .00149502  00000+0  77000-3 0  9990
2 69222  97.2845 174.8230 0001291  90.3680 307.0417 15.80757282  3046
STARLINK-37759          
1 69223U 26115N   26157.91670139  .00094828  00000+0  49112-3 0  9994
2 69223  97.2840 174.8310 0001199  94.4575 322.6159 15.80786125  3040
STARLINK-37725          
1 69224U 26115P   26157.91670139  .00140121  00000+0  72235-3 0  9995
2 69224  97.2845 174.8298 0001156  80.3556 333.4952 15.80762333  3043
STARLINK-37770          
1 69225U 26115Q   26157.91670139  .00225635  00000+0  11547-2 0  9998
2 69225  97.2843 174.8280 0001636  90.3266 320.1426 15.80698297  3041
