OBJECT_NAME,OBJECT_ID,EPOCH,MEAN_MOTION,ECCENTRICITY,INCLINATION,RA_OF_ASC_NODE,ARG_OF_PERICENTER,MEAN_ANOMALY,EPHEMERIS_TYPE,CLASSIFICATION_TYPE,NORAD_CAT_ID,ELEMENT_SET_NO,REV_AT_EPOCH,BSTAR,MEAN_MOTION_DOT,MEAN_MOTION_DDOT
STARLINK-36933,2026-114Q,2026-06-06T22:00:03.000096,15.80899304,.00007009,53.1588,253.6132,114.2720,76.6581,0,U,69196,999,316,-.38635771E-3,-.76371E-3,0
STARLINK-37419,2026-114R,2026-06-06T22:00:03.000096,15.80876710,.00010476,53.1588,253.5952,83.6080,115.8753,0,U,69197,999,316,-.32455056E-3,-.6429E-3,0
STARLINK-37321,2026-114S,2026-06-06T22:00:03.000096,15.80888366,.00014719,53.1592,253.5869,79.4274,124.3364,0,U,69198,999,316,-.15170325E-3,-.30557E-3,0
STARLINK-37406,2026-114T,2026-06-06T22:00:03.000096,15.80908324,.00008771,53.1589,253.5779,75.6703,132.3405,0,U,69199,999,316,-.47227583E-3,-.93062E-3,0
STARLINK-37761,2026-114U,2026-06-06T22:00:03.000096,15.80867031,.00011962,53.1589,253.5686,75.1831,137.1126,0,U,69200,999,316,-.65281727E-4,-.1356E-3,0
STARLINK-37754,2026-114V,2026-06-06T22:00:03.000096,15.80901043,.00007059,53.1587,253.5578,91.3724,126.2865,0,U,69201,999,316,-.3899773E-3,-.7708E-3,0
STARLINK-37649,2026-114W,2026-06-06T22:00:03.000096,15.80878476,.00009321,53.1589,253.5514,98.0571,122.7760,0,U,69202,999,316,-.97562714E-4,-.19914E-3,0
STARLINK-37604,2026-114X,2026-06-06T22:00:03.000096,15.80859488,.0000668,53.1590,253.5427,105.6907,119.4211,0,U,69203,999,316,.12642601E-3,.24308E-3,0
STARLINK-37669,2026-114Y,2026-06-06T22:00:03.000096,15.80858227,.00010494,53.1589,253.5334,91.8520,137.5289,0,U,69204,999,316,.12214478E-3,.23458E-3,0
STARLINK-37691,2026-114Z,2026-06-06T22:00:03.000096,15.80861397,.00009232,53.1589,253.5066,86.2690,155.9310,0,U,69205,999,316,-.803414E-5,-.2283E-4,0
STARLINK-37671,2026-114AA,2026-06-06T22:00:03.000096,15.80889527,.00011157,53.1588,253.5152,85.4348,152.4840,0,U,69206,999,316,-.21702444E-3,-.43351E-3,0
STARLINK-37647,2026-114AB,2026-06-06T22:00:03.000096,15.80874462,.00010954,53.1589,253.5246,104.3419,129.3085,0,U,69207,999,316,-.65289109E-4,-.13565E-3,0
STARLINK-37562,2026-114AC,2026-06-06T22:00:03.000096,15.80878800,.00009994,53.1588,253.4976,78.1559,168.3040,0,U,69208,999,316,-.611273E-5,-.1905E-4,0
STARLINK-37682,2026-114AD,2026-06-06T22:00:03.000096,15.80868603,.00007854,53.1587,253.4886,95.0561,155.6786,0,U,69209,999,316,.52484552E-4,.967E-4,0
STARLINK-37402,2026-114AE,2026-06-06T22:00:03.000096,15.80862309,.00011602,53.1588,253.4798,102.2107,152.8022,0,U,69210,999,316,.39870216E-4,.7173E-4,0
STARLINK-37613,2026-115A,2026-06-06T22:00:03.000096,15.76795693,.00008851,97.2846,174.8071,92.3704,268.1990,0,U,69211,999,304,-.49084687E-2,-.722526E-2,0
STARLINK-37713,2026-115B,2026-06-06T22:00:03.000096,15.80808033,.00011612,97.2840,174.8092,81.8455,284.9808,0,U,69212,999,304,.10154789E-3,.19345E-3,0
STARLINK-37716,2026-115C,2026-06-06T22:00:03.000096,15.80677773,.00016687,97.2845,174.8081,92.0893,270.5615,0,U,69213,999,304,.96222636E-3,.186994E-2,0
STARLINK-37620,2026-115D,2026-06-06T22:00:03.000096,15.74903866,.00013304,97.2847,174.8057,81.5093,278.1046,0,U,69214,999,304,-.19753685E-1,-.2489718E-1,0
STARLINK-37700,2026-115E,2026-06-06T22:00:03.000096,15.64645502,.00013724,97.2848,174.7757,94.4513,193.9134,0,U,69215,999,304,-.28887402E-1,-.2442291E-1,0
STARLINK-37766,2026-115F,2026-06-06T22:00:03.000096,15.80768698,.00010581,97.2840,174.8146,80.7592,298.8964,0,U,69216,999,304,.63883813E-3,.123706E-2,0
STARLINK-37763,2026-115G,2026-06-06T22:00:03.000096,15.80759827,.00011593,97.2841,174.8163,84.4734,298.7890,0,U,69217,999,304,.72955693E-3,.141527E-2,0
STARLINK-37724,2026-115H,2026-06-06T22:00:03.000096,15.80766986,.00013614,97.2845,174.8186,94.3787,293.6382,0,U,69218,999,304,.73926193E-3,.143492E-2,0
STARLINK-37758,2026-115J,2026-06-06T22:00:03.000096,15.80768623,.00010386,97.2842,174.8263,90.7321,315.5339,0,U,69219,999,304,.70444966E-3,.136629E-2,0
STARLINK-37201,2026-115K,2026-06-06T22:00:03.000096,15.80793638,.00010973,97.2846,174.8229,85.3019,313.9373,0,U,69220,999,304,.26363239E-3,.50597E-3,0
STARLINK-37728,2026-115L,2026-06-06T22:00:03.000096,15.80809413,.00012715,97.2843,174.8290,86.1205,326.8720,0,U,69221,999,304,.35408883E-4,.6644E-4,0
STARLINK-37760,2026-115M,2026-06-06T22:00:03.000096,15.80757282,.00012913,97.2845,174.8230,90.3680,307.0417,0,U,69222,999,304,.76999875E-3,.149502E-2,0
STARLINK-37759,2026-115N,2026-06-06T22:00:03.000096,15.80786125,.0001199,97.2840,174.8310,94.4575,322.6159,0,U,69223,999,304,.49111541E-3,.94828E-3,0
STARLINK-37725,2026-115P,2026-06-06T22:00:03.000096,15.80762333,.00011565,97.2845,174.8298,80.3556,333.4952,0,U,69224,999,304,.72235075E-3,.140121E-2,0
STARLINK-37770,2026-115Q,2026-06-06T22:00:03.000096,15.80698297,.00016362,97.2843,174.8280,90.3266,320.1426,0,U,69225,999,304,.11546684E-2,.225635E-2,0
